{"type":"FeatureCollection","features":[{"type":"Feature","geometry":{"type":"Polygon","coordinates":[[[-80.15980843167125,40.749838869042996],[-80.16077703293982,40.74961052436341],[-80.16096582467655,40.75014961368499],[-80.16162855767574,40.750085785321495],[-80.1615317129999,40.74922544660899],[-80.16103012788123,40.749232215260776],[-80.16053331820662,40.74923893559353],[-80.15980374066882,40.74924877892327],[-80.15979654157016,40.74982076547898],[-80.15980843167125,40.749838869042996]]]},"properties":{"farmId":"42-007-0001238","farm":"1238","tract":"1783","field":"3","landType":"UHEL","active":"active","selected":"selected","symbology":"","farmRecordId":"42-007-0001238","tractRecordId":"42-007-0001238-0001783","fieldRecordId":"42-007-0001238-0001783-3","acres":2.64,"stateCounty":"42007","cropland_indicator_3CM":0,"sap_crp":0,"name":"Field3"}},{"type":"Feature","geometry":{"type":"Polygon","coordinates":[[[-80.16023826205998,40.75049383337482],[-80.16096582467655,40.75014961368499],[-80.16077703293982,40.74961052436341],[-80.15980843167125,40.749838869042996],[-80.16023826205998,40.75049383337482]]]},"properties":{"farmId":"42-007-0001238","farm":"1238","tract":"1783","field":"2","landType":"UHEL","active":"active","selected":"selected","symbology":"","farmRecordId":"42-007-0001238","tractRecordId":"42-007-0001238-0001783","fieldRecordId":"42-007-0001238-0001783-2","acres":1.38,"stateCounty":"42007","cropland_indicator_3CM":0,"sap_crp":0,"name":"Field2"}},{"type":"Feature","geometry":{"type":"Polygon","coordinates":[[[-80.16070660502155,40.745640051535595],[-80.16181938858819,40.74567101981559],[-80.16186148004913,40.74556673703746],[-80.16303035801536,40.74267087086313],[-80.16514305273147,40.74250896646239],[-80.16503784563865,40.74097998489696],[-80.163622841861,40.741005008052355],[-80.16354304451431,40.74137033688156],[-80.16331227540266,40.74178053335009],[-80.16317533262749,40.741905388893386],[-80.16255951414402,40.74183227718554],[-80.16200301052045,40.741828238411365],[-80.16177740043348,40.741826600168984],[-80.16165897822451,40.741831739499084],[-80.16175833908147,40.74214680397128],[-80.1617995834311,40.74245600486257],[-80.16161162353433,40.7430495609965],[-80.16120518078401,40.744270781526204],[-80.16070660502155,40.745640051535595]]]},"properties":{"farmId":"42-007-0001079","farm":"1079","tract":"1583","field":"2","landType":"UHEL","active":"active","selected":"selected","symbology":"","farmRecordId":"42-007-0001079","tractRecordId":"42-007-0001079-0001583","fieldRecordId":"42-007-0001079-0001583-2","acres":17.45,"stateCounty":"42007","cropland_indicator_3CM":0,"sap_crp":0,"name":"Field2"}},{"type":"Feature","geometry":{"type":"Polygon","coordinates":[[[-80.15993956324485,40.748501243162735],[-80.16067780772849,40.748528649487156],[-80.16053331820662,40.74923893559353],[-80.16103012788123,40.749232215260776],[-80.16179467413808,40.74823930602257],[-80.16160055179844,40.74812348784302],[-80.16170713960184,40.748021285956696],[-80.16113884828512,40.747754010012436],[-80.16104701531026,40.747879200063444],[-80.16006766120773,40.74780629636654],[-80.15993956324485,40.748501243162735]]]},"properties":{"farmId":"42-007-0001068","farm":"1068","tract":"446","field":"6","landType":"UHEL","active":"active","selected":"selected","symbology":"","farmRecordId":"42-007-0001068","tractRecordId":"42-007-0001068-0000446","fieldRecordId":"42-007-0001068-0000446-6","acres":3.74,"stateCounty":"42007","cropland_indicator_3CM":0,"sap_crp":0,"name":"Field6"}},{"type":"Feature","geometry":{"type":"Polygon","coordinates":[[[-80.1652257327719,40.743710505901085],[-80.1647153809944,40.74445069002554],[-80.16408479600429,40.745555881143694],[-80.16439937883025,40.745661126274186],[-80.16395013764487,40.746698984571594],[-80.16175647328062,40.74648857909718],[-80.16150589092706,40.74727617348302],[-80.16096395258751,40.74730655708082],[-80.16151590354923,40.747676673717336],[-80.16328341073594,40.74828442172322],[-80.16328728247481,40.747975557579885],[-80.16321264594944,40.7479292445763],[-80.16327854995195,40.747472090788555],[-80.16196660719189,40.74712506923736],[-80.16205901239358,40.746954137117925],[-80.16434265740659,40.74718806063055],[-80.16421917139436,40.74743885504612],[-80.16351191519476,40.747456621701694],[-80.1634927155022,40.747788265068536],[-80.16431916646191,40.747862896712014],[-80.16484663833211,40.747786629695234],[-80.16523858856195,40.74772082068865],[-80.16525191417085,40.74785820633317],[-80.16502428107786,40.74801672149124],[-80.16467716845882,40.74810574518491],[-80.16431615890232,40.748103131866735],[-80.16397090759254,40.74804342704656],[-80.16399955846022,40.748158060526144],[-80.16437188768762,40.74845820872489],[-80.16448778563064,40.748813711749534],[-80.16448363271907,40.74914546472089],[-80.16430097737403,40.74931575354255],[-80.16403007153549,40.74932523277246],[-80.16395299698243,40.74947340434615],[-80.16383881841486,40.74958126470351],[-80.16364326685562,40.74957984782652],[-80.16341705759235,40.74962397107665],[-80.1628426703081,40.749728755171695],[-80.16552228012192,40.749696416141596],[-80.16540072458925,40.74618320747169],[-80.16526631775814,40.74430022524042],[-80.1652257327719,40.743710505901085]]]},"properties":{"farmId":"42-007-0001068","farm":"1068","tract":"446","field":"5","landType":"UHEL","active":"active","selected":"selected","symbology":"","farmRecordId":"42-007-0001068","tractRecordId":"42-007-0001068-0000446","fieldRecordId":"42-007-0001068-0000446-5","acres":20.79,"stateCounty":"42007","cropland_indicator_3CM":0,"sap_crp":0,"name":"Field5"}},{"type":"Feature","geometry":{"type":"Polygon","coordinates":[[[-80.16514305273147,40.74250896646239],[-80.16303035801536,40.74267087086313],[-80.16186148004913,40.74556673703746],[-80.16229456054255,40.745565782187136],[-80.16289923183164,40.74532991331522],[-80.16306699400758,40.745148077064165],[-80.16339103519519,40.744498292444554],[-80.16334877844423,40.74426917941536],[-80.16315912252819,40.74379873157579],[-80.16317703134168,40.7435700367463],[-80.16331569798389,40.743307895059814],[-80.16380073523672,40.74301395862662],[-80.16461652319398,40.74273384605702],[-80.16506804699853,40.74271423233417],[-80.16516016204437,40.7427576073891],[-80.16514305273147,40.74250896646239]]]},"properties":{"farmId":"42-007-0001068","farm":"1068","tract":"446","field":"4","landType":"UHEL","active":"active","selected":"selected","symbology":"","farmRecordId":"42-007-0001068","tractRecordId":"42-007-0001068-0000446","fieldRecordId":"42-007-0001068-0000446-4","acres":6.41,"stateCounty":"42007","cropland_indicator_3CM":0,"sap_crp":0,"name":"Field4"}},{"type":"Feature","geometry":{"type":"Polygon","coordinates":[[[-80.16060091912668,40.745979732005296],[-80.16168659153804,40.74606476278496],[-80.16181938858819,40.74567101981559],[-80.16070660502155,40.745640051535595],[-80.16060091912668,40.745979732005296]]]},"properties":{"farmId":"42-007-0001068","farm":"1068","tract":"446","field":"3","landType":"UHEL","active":"active","selected":"selected","symbology":"","farmRecordId":"42-007-0001068","tractRecordId":"42-007-0001068-0000446","fieldRecordId":"42-007-0001068-0000446-3","acres":0.95,"stateCounty":"42007","cropland_indicator_3CM":0,"sap_crp":0,"name":"Field3"}},{"type":"Feature","geometry":{"type":"Polygon","coordinates":[[[-80.1615317129999,40.74922544660899],[-80.16162855767574,40.750085785321495],[-80.16096582467655,40.75014961368499],[-80.16023826205998,40.75049383337482],[-80.16047554395743,40.75085537673147],[-80.16264298110866,40.75076815602523],[-80.16258587969762,40.749731855689],[-80.1625572027788,40.74921158740777],[-80.1615317129999,40.74922544660899]]]},"properties":{"farmId":"42-007-0001238","farm":"1238","tract":"1783","field":"1","landType":"HEL","active":"active","selected":"selected","symbology":"","farmRecordId":"42-007-0001238","tractRecordId":"42-007-0001238-0001783","fieldRecordId":"42-007-0001238-0001783-1","acres":5.5,"stateCounty":"42007","cropland_indicator_3CM":1,"sap_crp":0,"name":"Field1"}},{"type":"Feature","geometry":{"type":"Polygon","coordinates":[[[-80.16165897822451,40.741831739499084],[-80.16177740043348,40.741826600168984],[-80.16200301052045,40.741828238411365],[-80.16255951414402,40.74183227718554],[-80.16317533262749,40.741905388893386],[-80.16331227540266,40.74178053335009],[-80.16354304451431,40.74137033688156],[-80.163622841861,40.741005008052355],[-80.16133595303151,40.74104541874385],[-80.16161367798136,40.74168812124412],[-80.16165897822451,40.741831739499084]]]},"properties":{"farmId":"42-007-0001079","farm":"1079","tract":"1583","field":"1","landType":"HEL","active":"active","selected":"selected","symbology":"","farmRecordId":"42-007-0001079","tractRecordId":"42-007-0001079-0001583","fieldRecordId":"42-007-0001079-0001583-1","acres":3.76,"stateCounty":"42007","cropland_indicator_3CM":1,"sap_crp":0,"name":"Field1"}},{"type":"Feature","geometry":{"type":"Polygon","coordinates":[[[-80.15993956324485,40.748501243162735],[-80.15992498089282,40.7485803758228],[-80.15980374066882,40.74924877892327],[-80.16053331820662,40.74923893559353],[-80.16067780772849,40.748528649487156],[-80.15993956324485,40.748501243162735]]]},"properties":{"farmId":"42-007-0001068","farm":"1068","tract":"446","field":"2","landType":"HEL","active":"active","selected":"selected","symbology":"","farmRecordId":"42-007-0001068","tractRecordId":"42-007-0001068-0000446","fieldRecordId":"42-007-0001068-0000446-2","acres":1.24,"stateCounty":"42007","cropland_indicator_3CM":1,"sap_crp":0,"name":"Field2"}},{"type":"Feature","geometry":{"type":"Polygon","coordinates":[[[-80.1615317129999,40.74922544660899],[-80.1625572027788,40.74921158740777],[-80.16258587969762,40.749731855689],[-80.1628426703081,40.749728755171695],[-80.16341705759235,40.74962397107665],[-80.16364326685562,40.74957984782652],[-80.16383881841486,40.74958126470351],[-80.16395299698243,40.74947340434615],[-80.16403007153549,40.74932523277246],[-80.16430097737403,40.74931575354255],[-80.16448363271907,40.74914546472089],[-80.16448778563064,40.748813711749534],[-80.16437188768762,40.74845820872489],[-80.16399955846022,40.748158060526144],[-80.16397090759254,40.74804342704656],[-80.16431615890232,40.748103131866735],[-80.16467716845882,40.74810574518491],[-80.16502428107786,40.74801672149124],[-80.16525191417085,40.74785820633317],[-80.16523858856195,40.74772082068865],[-80.16484663833211,40.747786629695234],[-80.16431916646191,40.747862896712014],[-80.1634927155022,40.747788265068536],[-80.16351191519476,40.747456621701694],[-80.16421917139436,40.74743885504612],[-80.16434265740659,40.74718806063055],[-80.16205901239358,40.746954137117925],[-80.16196660719189,40.74712506923736],[-80.16327854995195,40.747472090788555],[-80.16321264594944,40.7479292445763],[-80.16328728247481,40.747975557579885],[-80.16328341073594,40.74828442172322],[-80.16151590354923,40.747676673717336],[-80.16096395258751,40.74730655708082],[-80.16150589092706,40.74727617348302],[-80.16175647328062,40.74648857909718],[-80.16395013764487,40.746698984571594],[-80.16439937883025,40.745661126274186],[-80.16408479600429,40.745555881143694],[-80.1647153809944,40.74445069002554],[-80.1652257327719,40.743710505901085],[-80.16516016204437,40.7427576073891],[-80.16506804699853,40.74271423233417],[-80.16461652319398,40.74273384605702],[-80.16380073523672,40.74301395862662],[-80.16331569798389,40.743307895059814],[-80.16317703134168,40.7435700367463],[-80.16315912252819,40.74379873157579],[-80.16334877844423,40.74426917941536],[-80.16339103519519,40.744498292444554],[-80.16306699400758,40.745148077064165],[-80.16289923183164,40.74532991331522],[-80.16229456054255,40.745565782187136],[-80.16186148004913,40.74556673703746],[-80.16181938858819,40.74567101981559],[-80.16168659153804,40.74606476278496],[-80.16060091912668,40.745979732005296],[-80.160118728635,40.747529224975516],[-80.16006766120773,40.74780629636654],[-80.16104701531026,40.747879200063444],[-80.16113884828512,40.747754010012436],[-80.16170713960184,40.748021285956696],[-80.16160055179844,40.74812348784302],[-80.16179467413808,40.74823930602257],[-80.16103012788123,40.749232215260776],[-80.1615317129999,40.74922544660899]]]},"properties":{"farmId":"42-007-0001068","farm":"1068","tract":"446","field":"1","landType":"HEL","active":"active","selected":"selected","symbology":"","farmRecordId":"42-007-0001068","tractRecordId":"42-007-0001068-0000446","fieldRecordId":"42-007-0001068-0000446-1","acres":33.55,"stateCounty":"42007","cropland_indicator_3CM":1,"sap_crp":0,"name":"Field1"}}]}