{"type": "FeatureCollection", "features": [{"type": "Feature", "geometry": {"type": "Polygon", "coordinates": [[[-80.15980843167125, 40.749838869042996], [-80.16077703293982, 40.74961052436341], [-80.16096582467655, 40.75014961368499], [-80.16162855767574, 40.750085785321495], [-80.1615317129999, 40.74922544660899], [-80.16103012788123, 40.749232215260776], [-80.16053331820662, 40.74923893559353], [-80.15980374066882, 40.74924877892327], [-80.15979654157016, 40.74982076547898], [-80.15980843167125, 40.749838869042996]]]}, "properties": {"farmId": "42-007-0001238", "farm": "1238", "tract": "1783", "field": "3", "landType": "UHEL", "active": "active", "selected": "selected", "symbology": "", "farmRecordId": "42-007-0001238", "tractRecordId": "42-007-0001238-0001783", "fieldRecordId": "42-007-0001238-0001783-3", "acres": 2.64, "stateCounty": "42007", "cropland_indicator_3CM": 0, "sap_crp": 0, "name": "Field3"}}, {"type": "Feature", "geometry": {"type": "Polygon", "coordinates": [[[-80.16023826205998, 40.75049383337482], [-80.16096582467655, 40.75014961368499], [-80.16077703293982, 40.74961052436341], [-80.15980843167125, 40.749838869042996], [-80.16023826205998, 40.75049383337482]]]}, "properties": {"farmId": "42-007-0001238", "farm": "1238", "tract": "1783", "field": "2", "landType": "UHEL", "active": "active", "selected": "selected", "symbology": "", "farmRecordId": "42-007-0001238", "tractRecordId": "42-007-0001238-0001783", "fieldRecordId": "42-007-0001238-0001783-2", "acres": 1.38, "stateCounty": "42007", "cropland_indicator_3CM": 0, "sap_crp": 0, "name": "Field2"}}, {"type": "Feature", "geometry": {"type": "Polygon", "coordinates": [[[-80.1615317129999, 40.74922544660899], [-80.16162855767574, 40.750085785321495], [-80.16096582467655, 40.75014961368499], [-80.16023826205998, 40.75049383337482], [-80.16047554395743, 40.75085537673147], [-80.16264298110866, 40.75076815602523], [-80.16258587969762, 40.749731855689], [-80.1625572027788, 40.74921158740777], [-80.1615317129999, 40.74922544660899]]]}, "properties": {"farmId": "42-007-0001238", "farm": "1238", "tract": "1783", "field": "1", "landType": "HEL", "active": "active", "selected": "selected", "symbology": "", "farmRecordId": "42-007-0001238", "tractRecordId": "42-007-0001238-0001783", "fieldRecordId": "42-007-0001238-0001783-1", "acres": 5.5, "stateCounty": "42007", "cropland_indicator_3CM": 1, "sap_crp": 0, "name": "Field1"}}]}