{"type": "FeatureCollection", "features": [{"type": "Feature", "geometry": {"type": "Polygon", "coordinates": [[[-80.16070660502155, 40.745640051535595], [-80.16181938858819, 40.74567101981559], [-80.16186148004913, 40.74556673703746], [-80.16303035801536, 40.74267087086313], [-80.16514305273147, 40.74250896646239], [-80.16503784563865, 40.74097998489696], [-80.163622841861, 40.741005008052355], [-80.16354304451431, 40.74137033688156], [-80.16331227540266, 40.74178053335009], [-80.16317533262749, 40.741905388893386], [-80.16255951414402, 40.74183227718554], [-80.16200301052045, 40.741828238411365], [-80.16177740043348, 40.741826600168984], [-80.16165897822451, 40.741831739499084], [-80.16175833908147, 40.74214680397128], [-80.1617995834311, 40.74245600486257], [-80.16161162353433, 40.7430495609965], [-80.16120518078401, 40.744270781526204], [-80.16070660502155, 40.745640051535595]]]}, "properties": {"farmId": "42-007-0001079", "farm": "1079", "tract": "1583", "field": "2", "landType": "UHEL", "active": "active", "selected": "selected", "symbology": "", "farmRecordId": "42-007-0001079", "tractRecordId": "42-007-0001079-0001583", "fieldRecordId": "42-007-0001079-0001583-2", "acres": 17.45, "stateCounty": "42007", "cropland_indicator_3CM": 0, "sap_crp": 0, "name": "Field2"}}, {"type": "Feature", "geometry": {"type": "Polygon", "coordinates": [[[-80.16165897822451, 40.741831739499084], [-80.16177740043348, 40.741826600168984], [-80.16200301052045, 40.741828238411365], [-80.16255951414402, 40.74183227718554], [-80.16317533262749, 40.741905388893386], [-80.16331227540266, 40.74178053335009], [-80.16354304451431, 40.74137033688156], [-80.163622841861, 40.741005008052355], [-80.16133595303151, 40.74104541874385], [-80.16161367798136, 40.74168812124412], [-80.16165897822451, 40.741831739499084]]]}, "properties": {"farmId": "42-007-0001079", "farm": "1079", "tract": "1583", "field": "1", "landType": "HEL", "active": "active", "selected": "selected", "symbology": "", "farmRecordId": "42-007-0001079", "tractRecordId": "42-007-0001079-0001583", "fieldRecordId": "42-007-0001079-0001583-1", "acres": 3.76, "stateCounty": "42007", "cropland_indicator_3CM": 1, "sap_crp": 0, "name": "Field1"}}]}